COMMENT,ORIGINATOR,NORAD_CAT_ID,OBJECT_NAME,OBJECT_TYPE,CLASSIFICATION_TYPE,INTLDES,EPOCH,EPOCH_MICROSECONDS,MEAN_MOTION,ECCENTRICITY,INCLINATION,RA_OF_ASC_NODE,ARG_OF_PERICENTER,MEAN_ANOMALY,EPHEMERIS_TYPE,ELEMENT_SET_NO,REV_AT_EPOCH,BSTAR,MEAN_MOTION_DOT,MEAN_MOTION_DDOT,FILE,TLE_LINE0,TLE_LINE1,TLE_LINE2,OBJECT_ID,OBJECT_NUMBER,SEMIMAJOR_AXIS,PERIOD,APOGEE,PERIGEE,DECAYED
"GENERATED VIA SPACETRACK.ORG API","18 SPCS","48890","SPACEBEE-104","PAYLOAD","U","21059M","2022-09-18 21:34:50","154240","15.17416388","0.0009035","97.5655","31.1352","139.2586","220.9325","0","999","6809","0.00058753","0.00011701","0","3577531","0 SPACEBEE-104","1 48890U 21059M   22261.89919160  .00011701  00000-0  58753-3 0  9993","2 48890  97.5655  31.1352 0009035 139.2586 220.9325 15.17416388 68094","2021-059M","48890","6891.789","94.898","519.881","507.428","0"
"GENERATED VIA SPACETRACK.ORG API","18 SPCS","48890","SPACEBEE-104","PAYLOAD","U","21059M","2022-09-19 08:39:32","600736","15.17427163","0.0009085","97.5656","31.5962","137.5244","222.6694","0","999","6816","0.0005697","0.00011347","0","3577889","0 SPACEBEE-104","1 48890U 21059M   22262.36079399  .00011347  00000-0  56970-3 0  9992","2 48890  97.5656  31.5962 0009085 137.5244 222.6694 15.17427163 68162","2021-059M","48890","6891.757","94.897","519.883","507.361","0"
"GENERATED VIA SPACETRACK.ORG API","18 SPCS","48890","SPACEBEE-104","PAYLOAD","U","21059M","2022-09-20 08:23:54","10752","15.17449638","0.0009155","97.5656","32.584","134.405","225.7934","0","999","6831","0.00053562","0.0001067","0","3578544","0 SPACEBEE-104","1 48890U 21059M   22263.34993068  .00010670  00000-0  53562-3 0  9991","2 48890  97.5656  32.5840 0009155 134.4050 225.7934 15.17449638 68316","2021-059M","48890","6891.689","94.896","519.863","507.244","0"
"GENERATED VIA SPACETRACK.ORG API","18 SPCS","48890","SPACEBEE-104","PAYLOAD","U","21059M","2022-09-20 08:23:54","10752","15.17449638","0.0009155","97.5656","32.584","134.405","225.7934","0","999","6831","0.00053562","0.0001067","0","3578736","0 SPACEBEE-104","1 48890U 21059M   22263.34993068  .00010670  00000-0  53562-3 0  9991","2 48890  97.5656  32.5840 0009155 134.4050 225.7934 15.17449638 68316","2021-059M","48890","6891.689","94.896","519.863","507.244","0"
"GENERATED VIA SPACETRACK.ORG API","18 SPCS","48890","SPACEBEE-104","PAYLOAD","U","21059M","2022-09-21 14:28:03","422496","15.17474307","0.0009135","97.5655","33.8352","130.6571","229.5458","0","999","6850","0.00047626","0.00009485","0","3579609","0 SPACEBEE-104","1 48890U 21059M   22264.60281739  .00009485  00000-0  47626-3 0  9992","2 48890  97.5655  33.8352 0009135 130.6571 229.5458 15.17474307 68506","2021-059M","48890","6891.614","94.895","519.774","507.183","0"
"GENERATED VIA SPACETRACK.ORG API","18 SPCS","48890","SPACEBEE-104","PAYLOAD","U","21059M","2022-09-21 14:28:03","422496","15.17474307","0.0009135","97.5655","33.8352","130.6571","229.5458","0","999","6850","0.00047626","0.00009485","0","3579752","0 SPACEBEE-104","1 48890U 21059M   22264.60281739  .00009485  00000-0  47626-3 0  9992","2 48890  97.5655  33.8352 0009135 130.6571 229.5458 15.17474307 68506","2021-059M","48890","6891.614","94.895","519.774","507.183","0"
"GENERATED VIA SPACETRACK.ORG API","18 SPCS","48890","SPACEBEE-104","PAYLOAD","U","21059M","2022-09-22 14:12:22","283712","15.1749289","0.0009124","97.5658","34.8231","127.823","232.3831","0","999","6865","0.00048354","0.00009637","0","3580347","0 SPACEBEE-104","1 48890U 21059M   22265.59192458  .00009637  00000-0  48354-3 0  9998","2 48890  97.5658  34.8231 0009124 127.8230 232.3831 15.17492890 68654","2021-059M","48890","6891.558","94.893","519.711","507.135","0"
"GENERATED VIA SPACETRACK.ORG API","18 SPCS","48890","SPACEBEE-104","PAYLOAD","U","21059M","2022-09-22 22:07:08","362848","15.17499676","0.0009119","97.566","35.1525","126.7972","233.41","0","999","6870","0.00052048","0.00010381","0","3580747","0 SPACEBEE-104","1 48890U 21059M   22265.92162457  .00010381  00000-0  52048-3 0  9994","2 48890  97.5660  35.1525 0009119 126.7972 233.4100 15.17499676 68708","2021-059M","48890","6891.537","94.893","519.687","507.118","0"
"GENERATED VIA SPACETRACK.ORG API","18 SPCS","48890","SPACEBEE-104","PAYLOAD","U","21059M","2022-09-23 07:36:51","450624","15.17508741","0.0009089","97.5662","35.5478","125.6495","234.5586","0","999","6876","0.00056492","0.00011277","0","3581351","0 SPACEBEE-104","1 48890U 21059M   22266.31726216  .00011277  00000-0  56492-3 0  9999","2 48890  97.5662  35.5478 0009089 125.6495 234.5586 15.17508741 68765","2021-059M","48890","6891.510","94.892","519.638","507.111","0"
"GENERATED VIA SPACETRACK.ORG API","18 SPCS","48890","SPACEBEE-104","PAYLOAD","U","21059M","2022-09-23 20:16:28","604928","15.17521683","0.0009086","97.5665","36.0747","123.9318","236.278","0","999","6884","0.00063914","0.00012775","0","3581681","0 SPACEBEE-104","1 48890U 21059M   22266.84477552  .00012775  00000-0  63914-3 0  9994","2 48890  97.5665  36.0747 0009086 123.9318 236.2780 15.17521683 68849","2021-059M","48890","6891.471","94.892","519.597","507.074","0"
"GENERATED VIA SPACETRACK.ORG API","18 SPCS","48890","SPACEBEE-104","PAYLOAD","U","21059M","2022-09-24 07:21:08","293536","15.17532352","0.0009074","97.5668","36.5357","122.1138","238.0977","0","999","6891","0.00061514","0.00012296","0","3582047","0 SPACEBEE-104","1 48890U 21059M   22267.30634599  .00012296  00000-0  61514-3 0  9994","2 48890  97.5668  36.5357 0009074 122.1138 238.0977 15.17532352 68913","2021-059M","48890","6891.438","94.891","519.557","507.050","0"
"GENERATED VIA SPACETRACK.ORG API","18 SPCS","48890","SPACEBEE-104","PAYLOAD","U","21059M","2022-09-24 07:21:08","293536","15.17532352","0.0009074","97.5668","36.5357","122.1138","238.0977","0","999","6891","0.00061514","0.00012296","0","3582188","0 SPACEBEE-104","1 48890U 21059M   22267.30634599  .00012296  00000-0  61514-3 0  9994","2 48890  97.5668  36.5357 0009074 122.1138 238.0977 15.17532352 68913","2021-059M","48890","6891.438","94.891","519.557","507.050","0"
"GENERATED VIA SPACETRACK.ORG API","18 SPCS","48890","SPACEBEE-104","PAYLOAD","U","21059M","2022-09-24 20:00:44","635680","15.17548645","0.0009101","97.567","37.0627","120.4951","239.7182","0","999","6899","0.00071004","0.00014214","0","3582616","0 SPACEBEE-104","1 48890U 21059M   22267.83384995  .00014214  00000-0  71004-3 0  9991","2 48890  97.5670  37.0627 0009101 120.4951 239.7182 15.17548645 68993","2021-059M","48890","6891.389","94.890","519.526","506.982","0"
"GENERATED VIA SPACETRACK.ORG API","18 SPCS","48890","SPACEBEE-104","PAYLOAD","U","21059M","2022-09-25 08:40:20","589888","15.17560299","0.0009198","97.5673","37.5897","118.9982","241.2174","0","999","6907","0.0006065","0.00012132","0","3583203","0 SPACEBEE-104","1 48890U 21059M   22268.36134942  .00012132  00000-0  60650-3 0  9997","2 48890  97.5673  37.5897 0009198 118.9982 241.2174 15.17560299 69070","2021-059M","48890","6891.354","94.889","519.557","506.880","0"
"GENERATED VIA SPACETRACK.ORG API","18 SPCS","48890","SPACEBEE-104","PAYLOAD","U","21059M","2022-09-25 08:40:20","589888","15.17560299","0.0009198","97.5673","37.5897","118.9982","241.2174","0","999","6907","0.0006065","0.00012132","0","3583351","0 SPACEBEE-104","1 48890U 21059M   22268.36134942  .00012132  00000-0  60650-3 0  9997","2 48890  97.5673  37.5897 0009198 118.9982 241.2174 15.17560299 69070","2021-059M","48890","6891.354","94.889","519.557","506.880","0"
"GENERATED VIA SPACETRACK.ORG API","18 SPCS","48890","SPACEBEE-104","PAYLOAD","U","21059M","2022-09-26 08:24:34","482240","15.17581231","0.0009245","97.5677","38.578","116.0406","244.178","0","999","6922","0.00047927","0.00009575","0","3584345","0 SPACEBEE-104","1 48890U 21059M   22269.35039910  .00009575  00000-0  47927-3 0  9995","2 48890  97.5677  38.5780 0009245 116.0406 244.1780 15.17581231 69220","2021-059M","48890","6891.290","94.888","519.526","506.784","0"
"GENERATED VIA SPACETRACK.ORG API","18 SPCS","48890","SPACEBEE-104","PAYLOAD","U","21059M","2022-09-26 22:39:06","295968","15.17593428","0.0009265","97.5677","39.171","114.0557","246.1646","0","999","6931","0.00049612","0.00009918","0","3584629","0 SPACEBEE-104","1 48890U 21059M   22269.94382287  .00009918  00000-0  49612-3 0  9992","2 48890  97.5677  39.1710 0009265 114.0557 246.1646 15.17593428 69311","2021-059M","48890","6891.253","94.887","519.503","506.734","0"
"GENERATED VIA SPACETRACK.ORG API","18 SPCS","48890","SPACEBEE-104","PAYLOAD","U","21059M","2022-09-27 08:08:47","159808","15.17608095","0.0009243","97.5678","39.5663","112.8237","247.3974","0","999","6937","0.00070611","0.00014159","0","3585092","0 SPACEBEE-104","1 48890U 21059M   22270.33943472  .00014159  00000-0  70611-3 0  9992","2 48890  97.5678  39.5663 0009243 112.8237 247.3974 15.17608095 69370","2021-059M","48890","6891.209","94.886","519.443","506.704","0"
"GENERATED VIA SPACETRACK.ORG API","18 SPCS","48890","SPACEBEE-104","PAYLOAD","U","21059M","2022-09-27 08:08:47","159808","15.17608095","0.0009243","97.5678","39.5663","112.8237","247.3974","0","999","6937","0.00070611","0.00014159","0","3585152","0 SPACEBEE-104","1 48890U 21059M   22270.33943472  .00014159  00000-0  70611-3 0  9992","2 48890  97.5678  39.5663 0009243 112.8237 247.3974 15.17608095 69370","2021-059M","48890","6891.209","94.886","519.443","506.704","0"
"GENERATED VIA SPACETRACK.ORG API","18 SPCS","48890","SPACEBEE-104","PAYLOAD","U","21059M","2022-09-28 14:12:45","35424","15.17639217","0.0009121","97.5678","40.8183","109.2262","250.9959","0","999","6956","0.00061692","0.0001237","0","3586039","0 SPACEBEE-104","1 48890U 21059M   22271.59218791  .00012370  00000-0  61692-3 0  9992","2 48890  97.5678  40.8183 0009121 109.2262 250.9959 15.17639217 69569","2021-059M","48890","6891.115","94.884","519.265","506.694","0"
